LEGION 1                
1 59625U 24081A   24145.79788660  .00010936  00000+0  56625-3 0  9994
2 59625  97.5768 216.8976 0005061  96.8996 263.2812 15.16377970  3338
